[{"OBJECT_NAME":"KORSAT-7","OBJECT_ID":"2023-185B","EPOCH":"2026-03-09T23:44:55.136256","MEAN_MOTION":15.00898391,"ECCENTRICITY":0.00224341,"INCLINATION":97.6243,"RA_OF_ASC_NODE":135.089,"ARG_OF_PERICENTER":307.6562,"MEAN_ANOMALY":52.2627,"EPHEMERIS_TYPE":0,"CLASSIFICATION_TYPE":"U","NORAD_CAT_ID":58463,"ELEMENT_SET_NO":999,"REV_AT_EPOCH":12440,"BSTAR":0.00023536002,"MEAN_MOTION_DOT":2.951e-5,"MEAN_MOTION_DDOT":0},{"OBJECT_NAME":"STARLINK-35959","OBJECT_ID":"2025-280G","EPOCH":"2026-03-09T22:45:14.984640","MEAN_MOTION":14.9832818,"ECCENTRICITY":0.00025614,"INCLINATION":70.0022,"RA_OF_ASC_NODE":333.84,"ARG_OF_PERICENTER":273.0904,"MEAN_ANOMALY":86.9962,"EPHEMERIS_TYPE":0,"CLASSIFICATION_TYPE":"U","NORAD_CAT_ID":66827,"ELEMENT_SET_NO":999,"REV_AT_EPOCH":1611,"BSTAR":0.0002026814,"MEAN_MOTION_DOT":2.326e-5,"MEAN_MOTION_DDOT":0}]
